KUIPER-00035            
1 63748U 25088AA  26027.04155327  .00008552  00000+0  11444-2 0  9990
2 63748  51.9016 298.2874 0004245 301.4222  58.6325 14.80118730 41345
KUIPER-00037            
1 63749U 25088AB  26027.04294185 -.00020672  00000+0 -26916-2 0  9996
2 63749  51.9014 297.2213 0000599 107.9433 252.1595 14.79922589 42143
KUIPER-00038            
1 63750U 25088AC  26027.66681537 -.00008388  00000+0 -10729-2 0  9992
2 63750  51.9008 279.4875 0002402  47.9486 312.1681 14.79920819 41449
KUIPER-00039            
1 64500U 25134A   26027.36953321  .00007545  00000+0  10174-2 0  9994
2 64500  51.9021  55.8042 0001924 198.8359 161.2532 14.79942969 33958
KUIPER-00040            
1 64501U 25134B   26027.49210844 -.00003216  00000+0 -39205-3 0  9995
2 64501  51.8997  66.4086 0015814 130.1003 230.1348 14.79883398 33810
KUIPER-00041            
1 64502U 25134C   26027.49082955  .00006629  00000+0  89517-3 0  9996
2 64502  51.8993  67.7641 0011203 130.1402 230.0544 14.80025299 33793
KUIPER-00042            
1 64503U 25134D   26027.29223743  .00000567  00000+0  10378-3 0  9991
2 64503  51.9008  64.6534 0011329 139.5304 220.6503 14.79895200 33821
KUIPER-00043            
1 64504U 25134E   26027.36790421  .00005641  00000+0  76838-3 0  9993
2 64504  51.9024  56.7740 0001928 161.1922 198.9112 14.79928491 33947
